CCSDS_OMM_VERS = 2.0
CREATION_DATE  = 
ORIGINATOR     = 

OBJECT_NAME    = IDEFIX & ARIANE 42P R/B
OBJECT_ID      = 2002-021B
CENTER_NAME    = EARTH
REF_FRAME      = TEME
TIME_SYSTEM    = UTC
MEAN_ELEMENT_THEORY = SGP/SGP4

EPOCH          = 2026-02-17T18:40:47.616960
MEAN_MOTION    = 14.31011252
ECCENTRICITY   = .0010674
INCLINATION    = 98.5852
RA_OF_ASC_NODE = 347.6250
ARG_OF_PERICENTER = 244.6345
MEAN_ANOMALY   = 115.3733

EPHEMERIS_TYPE = 0
CLASSIFICATION_TYPE = U
NORAD_CAT_ID   = 27422
ELEMENT_SET_NO = 999
REV_AT_EPOCH   = 24117
BSTAR          = .11735E-3
MEAN_MOTION_DOT = .265E-5
MEAN_MOTION_DDOT = 0

CCSDS_OMM_VERS = 2.0
CREATION_DATE  = 
ORIGINATOR     = 

OBJECT_NAME    = AQUA
OBJECT_ID      = 2002-022A
CENTER_NAME    = EARTH
REF_FRAME      = TEME
TIME_SYSTEM    = UTC
MEAN_ELEMENT_THEORY = SGP/SGP4

EPOCH          = 2026-02-18T04:24:53.338752
MEAN_MOTION    = 14.61926334
ECCENTRICITY   = .0001163
INCLINATION    = 98.4140
RA_OF_ASC_NODE = 16.1993
ARG_OF_PERICENTER = 47.7999
MEAN_ANOMALY   = 41.8526

EPHEMERIS_TYPE = 0
CLASSIFICATION_TYPE = U
NORAD_CAT_ID   = 27424
ELEMENT_SET_NO = 999
REV_AT_EPOCH   = 26588
BSTAR          = .20803E-3
MEAN_MOTION_DOT = .992E-5
MEAN_MOTION_DDOT = 0

CCSDS_OMM_VERS = 2.0
CREATION_DATE  = 
ORIGINATOR     = 

OBJECT_NAME    = CZ-4B R/B
OBJECT_ID      = 2002-024C
CENTER_NAME    = EARTH
REF_FRAME      = TEME
TIME_SYSTEM    = UTC
MEAN_ELEMENT_THEORY = SGP/SGP4

EPOCH          = 2026-02-18T02:49:48.857376
MEAN_MOTION    = 14.14543958
ECCENTRICITY   = .0051147
INCLINATION    = 98.8885
RA_OF_ASC_NODE = 102.6191
ARG_OF_PERICENTER = 79.0225
MEAN_ANOMALY   = 302.0312

EPHEMERIS_TYPE = 0
CLASSIFICATION_TYPE = U
NORAD_CAT_ID   = 27432
ELEMENT_SET_NO = 999
REV_AT_EPOCH   = 22647
BSTAR          = .4713E-4
MEAN_MOTION_DOT = .47E-6
MEAN_MOTION_DDOT = 0

CCSDS_OMM_VERS = 2.0
CREATION_DATE  = 
ORIGINATOR     = 

OBJECT_NAME    = MIDORI II (ADEOS-II)
OBJECT_ID      = 2002-056A
CENTER_NAME    = EARTH
REF_FRAME      = TEME
TIME_SYSTEM    = UTC
MEAN_ELEMENT_THEORY = SGP/SGP4

EPOCH          = 2026-02-17T18:46:24.653856
MEAN_MOTION    = 14.29269643
ECCENTRICITY   = .00021383
INCLINATION    = 98.7735
RA_OF_ASC_NODE = 7.1269
ARG_OF_PERICENTER = 70.1629
MEAN_ANOMALY   = 289.9783

EPHEMERIS_TYPE = 0
CLASSIFICATION_TYPE = U
NORAD_CAT_ID   = 27597
ELEMENT_SET_NO = 999
REV_AT_EPOCH   = 20745
BSTAR          = .12351679E-3
MEAN_MOTION_DOT = .269E-5
MEAN_MOTION_DDOT = 0

CCSDS_OMM_VERS = 2.0
CREATION_DATE  = 
ORIGINATOR     = 

OBJECT_NAME    = H-2A R/B
OBJECT_ID      = 2002-056E
CENTER_NAME    = EARTH
REF_FRAME      = TEME
TIME_SYSTEM    = UTC
MEAN_ELEMENT_THEORY = SGP/SGP4

EPOCH          = 2026-02-17T17:58:04.438272
MEAN_MOTION    = 14.33746362
ECCENTRICITY   = .00693
INCLINATION    = 98.3168
RA_OF_ASC_NODE = 9.8780
ARG_OF_PERICENTER = 220.3204
MEAN_ANOMALY   = 203.3666

EPHEMERIS_TYPE = 0
CLASSIFICATION_TYPE = U
NORAD_CAT_ID   = 27601
ELEMENT_SET_NO = 999
REV_AT_EPOCH   = 21125
BSTAR          = .10597E-3
MEAN_MOTION_DOT = .26E-5
MEAN_MOTION_DDOT = 0

CCSDS_OMM_VERS = 2.0
CREATION_DATE  = 
ORIGINATOR     = 

OBJECT_NAME    = CZ-4B R/B
OBJECT_ID      = 2003-049C
CENTER_NAME    = EARTH
REF_FRAME      = TEME
TIME_SYSTEM    = UTC
MEAN_ELEMENT_THEORY = SGP/SGP4

EPOCH          = 2026-02-17T23:46:52.603968
MEAN_MOTION    = 14.54998542
ECCENTRICITY   = .0047091
INCLINATION    = 98.6858
RA_OF_ASC_NODE = 43.1262
ARG_OF_PERICENTER = 292.5172
MEAN_ANOMALY   = 67.1043

EPHEMERIS_TYPE = 0
CLASSIFICATION_TYPE = U
NORAD_CAT_ID   = 28059
ELEMENT_SET_NO = 999
REV_AT_EPOCH   = 18373
BSTAR          = .10854E-3
MEAN_MOTION_DOT = .422E-5
MEAN_MOTION_DDOT = 0

CCSDS_OMM_VERS = 2.0
CREATION_DATE  = 
ORIGINATOR     = 

OBJECT_NAME    = CZ-2C R/B
OBJECT_ID      = 2004-012C
CENTER_NAME    = EARTH
REF_FRAME      = TEME
TIME_SYSTEM    = UTC
MEAN_ELEMENT_THEORY = SGP/SGP4

EPOCH          = 2026-02-18T03:35:51.435168
MEAN_MOTION    = 15.62192286
ECCENTRICITY   = .0014893
INCLINATION    = 97.7280
RA_OF_ASC_NODE = 112.6242
ARG_OF_PERICENTER = 26.4466
MEAN_ANOMALY   = 333.7548

EPHEMERIS_TYPE = 0
CLASSIFICATION_TYPE = U
NORAD_CAT_ID   = 28222
ELEMENT_SET_NO = 999
REV_AT_EPOCH   = 20122
BSTAR          = .54263E-3
MEAN_MOTION_DOT = .48008E-3
MEAN_MOTION_DDOT = 0

CCSDS_OMM_VERS = 2.0
CREATION_DATE  = 
ORIGINATOR     = 

OBJECT_NAME    = SL-16 R/B
OBJECT_ID      = 2004-021B
CENTER_NAME    = EARTH
REF_FRAME      = TEME
TIME_SYSTEM    = UTC
MEAN_ELEMENT_THEORY = SGP/SGP4

EPOCH          = 2026-02-18T01:57:46.648224
MEAN_MOTION    = 14.14595544
ECCENTRICITY   = .000322
INCLINATION    = 70.9990
RA_OF_ASC_NODE = 273.6436
ARG_OF_PERICENTER = 56.7262
MEAN_ANOMALY   = 303.4168

EPHEMERIS_TYPE = 0
CLASSIFICATION_TYPE = U
NORAD_CAT_ID   = 28353
ELEMENT_SET_NO = 999
REV_AT_EPOCH   = 12006
BSTAR          = .19481E-3
MEAN_MOTION_DOT = .327E-5
MEAN_MOTION_DDOT = 0

CCSDS_OMM_VERS = 2.0
CREATION_DATE  = 
ORIGINATOR     = 

OBJECT_NAME    = CZ-4B R/B
OBJECT_ID      = 2004-035C
CENTER_NAME    = EARTH
REF_FRAME      = TEME
TIME_SYSTEM    = UTC
MEAN_ELEMENT_THEORY = SGP/SGP4

EPOCH          = 2026-02-18T01:52:10.559136
MEAN_MOTION    = 15.28687088
ECCENTRICITY   = .0033398
INCLINATION    = 97.3527
RA_OF_ASC_NODE = 83.5582
ARG_OF_PERICENTER = 40.9866
MEAN_ANOMALY   = 319.3874

EPHEMERIS_TYPE = 0
CLASSIFICATION_TYPE = U
NORAD_CAT_ID   = 28415
ELEMENT_SET_NO = 999
REV_AT_EPOCH   = 17691
BSTAR          = .25625E-3
MEAN_MOTION_DOT = .7191E-4
MEAN_MOTION_DDOT = 0

CCSDS_OMM_VERS = 2.0
CREATION_DATE  = 
ORIGINATOR     = 

OBJECT_NAME    = CZ-2C R/B
OBJECT_ID      = 2004-046B
CENTER_NAME    = EARTH
REF_FRAME      = TEME
TIME_SYSTEM    = UTC
MEAN_ELEMENT_THEORY = SGP/SGP4

EPOCH          = 2026-02-17T18:46:13.764000
MEAN_MOTION    = 14.26984835
ECCENTRICITY   = .013867
INCLINATION    = 98.1994
RA_OF_ASC_NODE = 325.0032
ARG_OF_PERICENTER = 213.3633
MEAN_ANOMALY   = 145.8754

EPHEMERIS_TYPE = 0
CLASSIFICATION_TYPE = U
NORAD_CAT_ID   = 28480
ELEMENT_SET_NO = 999
REV_AT_EPOCH   = 10566
BSTAR          = .53325E-4
MEAN_MOTION_DOT = .102E-5
MEAN_MOTION_DDOT = 0

CCSDS_OMM_VERS = 2.0
CREATION_DATE  = 
ORIGINATOR     = 

OBJECT_NAME    = ARIANE 5 R/B
OBJECT_ID      = 2004-049H
CENTER_NAME    = EARTH
REF_FRAME      = TEME
TIME_SYSTEM    = UTC
MEAN_ELEMENT_THEORY = SGP/SGP4

EPOCH          = 2026-02-17T10:07:32.084832
MEAN_MOTION    = 14.85225370
ECCENTRICITY   = .00852521
INCLINATION    = 98.2593
RA_OF_ASC_NODE = 216.1250
ARG_OF_PERICENTER = 57.3020
MEAN_ANOMALY   = 303.6378

EPHEMERIS_TYPE = 0
CLASSIFICATION_TYPE = U
NORAD_CAT_ID   = 28499
ELEMENT_SET_NO = 999
REV_AT_EPOCH   = 14278
BSTAR          = .10731239E-3
MEAN_MOTION_DOT = .918E-5
MEAN_MOTION_DDOT = 0

CCSDS_OMM_VERS = 2.0
CREATION_DATE  = 
ORIGINATOR     = 

OBJECT_NAME    = CZ-2D R/B
OBJECT_ID      = 2005-024B
CENTER_NAME    = EARTH
REF_FRAME      = TEME
TIME_SYSTEM    = UTC
MEAN_ELEMENT_THEORY = SGP/SGP4

EPOCH          = 2026-02-18T00:09:27.953856
MEAN_MOTION    = 15.58347599
ECCENTRICITY   = .0007642
INCLINATION    = 97.3602
RA_OF_ASC_NODE = 63.4586
ARG_OF_PERICENTER = 93.4067
MEAN_ANOMALY   = 266.8063

EPHEMERIS_TYPE = 0
CLASSIFICATION_TYPE = U
NORAD_CAT_ID   = 28738
ELEMENT_SET_NO = 999
REV_AT_EPOCH   = 13671
BSTAR          = .47513E-3
MEAN_MOTION_DOT = .36098E-3
MEAN_MOTION_DDOT = 0

