IDEFIX & ARIANE 42P R/B 
1 27422U 02021B   26048.77832890  .00000265  00000+0  11735-3 0  9998
2 27422  98.5852 347.6250 0010674 244.6345 115.3733 14.31011252241177
AQUA                    
1 27424U 02022A   26049.18395068  .00000992  00000+0  20803-3 0  9991
2 27424  98.4140  16.1993 0001163  47.7999  41.8526 14.61926334265886
CZ-4B R/B               
1 27432U 02024C   26049.11792659  .00000047  00000+0  47130-4 0  9996
2 27432  98.8885 102.6191 0051147  79.0225 302.0312 14.14543958226475
MIDORI II (ADEOS-II)    
1 27597U 02056A   26048.78222979  .00000269  00000+0  12352-3 0  9991
2 27597  98.7735   7.1269 0002138  70.1629 289.9783 14.29269643207455
H-2A R/B                
1 27601U 02056E   26048.74866248  .00000260  00000+0  10597-3 0  9996
2 27601  98.3168   9.8780 0069300 220.3204 203.3666 14.33746362211252
CZ-4B R/B               
1 28059U 03049C   26048.99088662  .00000422  00000+0  10854-3 0  9996
2 28059  98.6858  43.1262 0047091 292.5172  67.1043 14.54998542183731
CZ-2C R/B               
1 28222U 04012C   26049.14990087  .00048008  00000+0  54263-3 0  9994
2 28222  97.7280 112.6242 0014893  26.4466 333.7548 15.62192286201224
SL-16 R/B               
1 28353U 04021B   26049.08178991  .00000327  00000+0  19481-3 0  9999
2 28353  70.9990 273.6436 0003220  56.7262 303.4168 14.14595544120069
CZ-4B R/B               
1 28415U 04035C   26049.07789999  .00007191  00000+0  25625-3 0  9991
2 28415  97.3527  83.5582 0033398  40.9866 319.3874 15.28687088176917
CZ-2C R/B               
1 28480U 04046B   26048.78210375  .00000102  00000+0  53325-4 0  9993
2 28480  98.1994 325.0032 0138670 213.3633 145.8754 14.26984835105667
ARIANE 5 R/B            
1 28499U 04049H   26048.42189913  .00000918  00000+0  10731-3 0  9998
2 28499  98.2593 216.1250 0085252  57.3020 303.6378 14.85225370142785
CZ-2D R/B               
1 28738U 05024B   26049.00657354  .00036098  00000+0  47513-3 0  9998
2 28738  97.3602  63.4586 0007642  93.4067 266.8063 15.58347599136712
